#aV2022  5 11  0  0  0.00000000     288 DD+AD WGS84 FIT  NGA
## 2209 259200.00000000   300.00000000 59710 0.0000000000000
+   32     1  2  3  4  5  6  7  8  9 10 11 12 13 14 15 16 17
+         18 19 20 21 22 23 24 25 26 27 28 29 30 31 32  0  0
+          0  0  0  0  0  0  0  0  0  0  0  0  0  0  0  0  0
+          0  0  0  0  0  0  0  0  0  0  0  0  0  0  0  0  0
+          0  0  0  0  0  0  0  0  0  0  0  0  0  0  0  0  0
++         2  2  2  2  2  2  2  2  2  2  2  2  2  2  2  2  2
++         2  2  2  2  2  2  2  2  2  2  2  2  2  2  2  0  0
++         0  0  0  0  0  0  0  0  0  0  0  0  0  0  0  0  0
++         0  0  0  0  0  0  0  0  0  0  0  0  0  0  0  0  0
++         0  0  0  0  0  0  0  0  0  0  0  0  0  0  0  0  0
%c cc cc ccc ccc cccc cccc cccc cccc ccccc ccccc ccccc ccccc
%c cc cc ccc ccc cccc cccc cccc cccc ccccc ccccc ccccc ccccc
%f  0.0000000  0.000000000  0.00000000000  0.000000000000000
%f  0.0000000  0.000000000  0.00000000000  0.000000000000000
%i    0    0    0    0      0      0      0      0         0
%i    0    0    0    0      0      0      0      0         0
/*      NGA, ST. LOUIS,MO.                                  
/*   EPHEMERIS COMPUTED FROM 2 DAYS OF DATA                 
/*   EPOCHA v7 SMOOTHER                                     
/*   G2139 IERS2010 SATIGS SATAPC                           
*  2022  5 11 23  0  0.00000000
P  1   9017.724706  13454.677283 -21419.006470    365.057777                    
V  1 -26244.460546   2423.747762  -9318.750563     -0.083352                    
P  2  14300.167499 -14760.374118  17559.677573   -653.267260                    
V  2  20891.897158  -2203.791992 -19459.895959      0.000476                    
P  3  12315.229572  23121.508011  -4850.414165   -240.808606                    
V  3  -5295.111449  -3596.402521 -31172.693736     -0.137745                    
P  4   2490.968538  20655.394497  16470.518878   -168.120743                    
V  4 -11094.402911  17847.722494 -20800.392489      0.035328                    
P  5   -437.713308 -20123.648938  17087.203824    -81.502244                    
V  5  14970.883708  16332.852124  19578.791053     -0.013686                    
P  6  25357.263597  -5886.966632   5552.963651    299.792702                    
V  6   7068.435149   1227.553821 -31249.559920      0.145140                    
P  7  23104.438634   6716.270908  12182.230786    321.973643                    
V  7 -14446.722506   3386.941322  25915.664320      0.003969                    
P  8  -3908.291099  24530.488283  -8931.369296    -67.621039                    
V  8  -7080.768825   9338.666749  29221.706755     -0.015922                    
P  9  11161.908848  11668.764764  21017.144047   -337.447880                    
V  9 -11442.532179  24320.642179  -7431.912194      0.028680                    
P 10 -18589.841300  -4538.869004 -18396.268614   -410.968586                    
V 10 -12664.412971 -19859.848685  17273.665569     -0.142697                    
P 11  15571.669597 -12668.429360  17379.188776    -26.186794                    
V 11  22122.871795    857.383574 -19208.458064      0.049788                    
P 12  -7710.402821 -24085.456178  -8575.715244   -214.011797                    
V 12   7307.181822   7822.384151 -29346.076416     -0.058378                    
P 13  12877.040937 -23032.733072  -2181.359010    309.902013                    
V 13   3678.041408   -738.611255  31877.076023      0.067955                    
P 14  18891.499166   5864.316666 -17769.021113   -107.826802                    
V 14  10876.193756  19825.581348  18020.980146     -0.018199                    
P 15    148.932779 -24708.583364  -9726.057338    -61.989233                    
V 15   6940.064843 -10327.028408  27824.859608      0.029904                    
P 16  -5708.882113  16708.030329  19418.757797   -500.032648                    
V 16 -13983.819074 -21224.543922  14400.378955     -0.033401                    
P 17  17495.490288  -6074.040327 -18625.873120    611.488009                    
V 17 -10501.880727  22166.636081 -16662.361975      0.046344                    
P 18 -22537.212463  -6844.784710  12374.176850    172.621373                    
V 18  15482.919269  -3088.919848  26366.392417     -0.100526                    
P 19  18678.716977 -12314.878213 -14412.819180    156.093066                    
V 19  -7640.554095  16289.123640 -24461.672230      0.049974                    
P 20   8282.899028 -13617.789259  21270.766028    515.317930                    
V 20  19162.716323  19088.883579   4529.243854     -0.008049                    
P 21  -2033.352848  15224.909079 -20945.633636    161.033354                    
V 21 -27954.858464   3941.982606   6077.039528      0.001801                    
P 22 -17925.154210  15454.489684 -11455.174789    257.607659                    
V 22   5212.930869 -14572.009713 -27025.321975      0.061441                    
P 23 -19829.173941 -14148.611581 -10718.628264    -21.243708                    
V 23  -6396.948523 -12140.085239  27783.372366     -0.025148                    
P 24  -5070.871177 -15229.363123 -21485.157331    242.727995                    
V 24  26253.890453  -4642.977865  -2532.443105     -0.066113                    
P 25 -17573.298469 -19646.874386   4007.962154    323.499282                    
V 25   -963.161965  -5966.280715 -30951.907543      0.048432                    
P 26 -13851.569769   7645.661171  21267.236788    204.970131                    
V 26 -16794.737659 -21489.733171  -2892.261206      0.026169                    
P 27 -12485.062987  23034.221182   2534.361134    201.244689                    
V 27  -1073.343699  -4357.921799  32052.566089      0.064381                    
P 28  15056.056469  -2976.469379 -21137.353409    359.514735                    
V 28  13443.129964  24644.419744   6185.266728     -0.064708                    
P 29  -9340.882722 -12628.750053  21353.788209   -512.637969                    
V 29  13704.352161 -23493.325264  -7942.171093     -0.039736                    
P 30  26513.230525    378.280711   3203.999575   -527.520430                    
V 30  -3694.695293   3612.862459  30690.294448     -0.014656                    
P 31 -24672.379274   7065.787934   7591.970084   -177.221224                    
V 31  -9843.639035  -1787.964947 -29358.990822     -0.015974                    
P 32 -17571.980000   8722.223074 -17669.722969   -124.970983                    
V 32   7714.566533 -21543.589595 -18341.105225     -0.086121                    
EOF
